ONEWEB-0208             
1 48243U 21031AK  26153.31699714  .00000045  00000+0  86482-4 0  9995
2 48243  87.8955 292.6698 0001626 107.6464 252.4843 13.14502753246359
ONEWEB-0200             
1 48244U 21031AL  26153.81333600 -.00000028  00000+0 -10939-3 0  9996
2 48244  87.8956 292.5569 0001870 102.8125 257.3214 13.14501969246342
ONEWEB-0217             
1 48245U 21031AM  26153.82919979  .00000236  00000+0  60219-3 0  9992
2 48245  87.8960 292.5583 0001716 109.4362 250.6953 13.14501610246292
ONEWEB-0211             
1 48767U 21045A   26153.74715373  .00000188  00000+0  46151-3 0  9994
2 48767  87.9003 261.9613 0001414 117.6954 242.4320 13.16196666242541
ONEWEB-0223             
1 48768U 21045B   26153.66629788 -.00000540  00000+0 -14681-2 0  9996
2 48768  87.9010 262.0812 0001573 102.5707 257.5600 13.15550189242493
ONEWEB-0230             
1 48769U 21045C   26154.24625053 -.00000097  00000+0 -29089-3 0  9999
2 48769  87.8998 261.9815 0002062  97.5906 262.5459 13.15547433242831
ONEWEB-0237             
1 48770U 21045D   26154.23515171 -.00000012  00000+0 -65279-4 0  9998
2 48770  87.8998 261.9850 0001658  96.3787 263.7532 13.15550299242554
ONEWEB-0235             
1 48771U 21045E   26153.82952334  .00000222  00000+0  55532-3 0  9990
2 48771  87.9007 262.0507 0001474 101.1540 258.9756 13.15547665242496
ONEWEB-0242             
1 48772U 21045F   26153.59501839  .00000143  00000+0  34550-3 0  9994
2 48772  87.9010 262.0938 0001804  94.1700 265.9636 13.15547790242501
ONEWEB-0241             
1 48773U 21045G   26154.26685835  .00000030  00000+0  46249-4 0  9993
2 48773  87.9003 261.9795 0001494 107.4452 252.6841 13.15546923242508
ONEWEB-0243             
1 48774U 21045H   26154.22248537  .00000157  00000+0  38396-3 0  9997
2 48774  87.9001 262.0006 0001633  87.6266 272.5051 13.15548092242526
ONEWEB-0222             
1 48775U 21045J   26153.82556032  .00000179  00000+0  44018-3 0  9997
2 48775  87.9004 262.0465 0001698 105.8655 254.2663 13.15547976242510
ONEWEB-0244             
1 48776U 21045K   26154.23199115  .00000034  00000+0  56883-4 0  9993
2 48776  87.9014 261.9592 0001805  98.9685 261.1650 13.15547834243131
ONEWEB-0247             
1 48777U 21045L   26154.22881000  .00000415  00000+0  10676-2 0  9995
2 48777  87.9005 261.9934 0001470  73.4189 286.7103 13.15554329242577
ONEWEB-0245             
1 48778U 21045M   26154.22407459  .00000097  00000+0  22309-3 0  9991
2 48778  87.9008 261.9727 0001825 109.4427 250.6900 13.15548434242542
ONEWEB-0229             
1 48779U 21045N   26153.83902803  .00000156  00000+0  38025-3 0  9999
2 48779  87.9003 262.0478 0001815  98.6345 261.4991 13.15547889242521
