[{"OBJECT_NAME":"ONEWEB-0208","OBJECT_ID":"2021-031AK","EPOCH":"2026-06-02T07:36:28.552896","MEAN_MOTION":13.14502753,"ECCENTRICITY":0.0001626,"INCLINATION":87.8955,"RA_OF_ASC_NODE":292.6698,"ARG_OF_PERICENTER":107.6464,"MEAN_ANOMALY":252.4843,"EPHEMERIS_TYPE":0,"CLASSIFICATION_TYPE":"U","NORAD_CAT_ID":48243,"ELEMENT_SET_NO":999,"REV_AT_EPOCH":24635,"BSTAR":8.6482e-05,"MEAN_MOTION_DOT":4.5e-07,"MEAN_MOTION_DDOT":0.0},{"OBJECT_NAME":"ONEWEB-0200","OBJECT_ID":"2021-031AL","EPOCH":"2026-06-02T19:31:12.230400","MEAN_MOTION":13.14501969,"ECCENTRICITY":0.000187,"INCLINATION":87.8956,"RA_OF_ASC_NODE":292.5569,"ARG_OF_PERICENTER":102.8125,"MEAN_ANOMALY":257.3214,"EPHEMERIS_TYPE":0,"CLASSIFICATION_TYPE":"U","NORAD_CAT_ID":48244,"ELEMENT_SET_NO":999,"REV_AT_EPOCH":24634,"BSTAR":-0.00010939000000000001,"MEAN_MOTION_DOT":-2.8e-07,"MEAN_MOTION_DDOT":0.0},{"OBJECT_NAME":"ONEWEB-0217","OBJECT_ID":"2021-031AM","EPOCH":"2026-06-02T19:54:02.861856","MEAN_MOTION":13.1450161,"ECCENTRICITY":0.0001716,"INCLINATION":87.896,"RA_OF_ASC_NODE":292.5583,"ARG_OF_PERICENTER":109.4362,"MEAN_ANOMALY":250.6953,"EPHEMERIS_TYPE":0,"CLASSIFICATION_TYPE":"U","NORAD_CAT_ID":48245,"ELEMENT_SET_NO":999,"REV_AT_EPOCH":24629,"BSTAR":0.0006021900000000001,"MEAN_MOTION_DOT":2.36e-06,"MEAN_MOTION_DDOT":0.0},{"OBJECT_NAME":"ONEWEB-0211","OBJECT_ID":"2021-045A","EPOCH":"2026-06-02T17:55:54.082272","MEAN_MOTION":13.16196666,"ECCENTRICITY":0.0001414,"INCLINATION":87.9003,"RA_OF_ASC_NODE":261.9613,"ARG_OF_PERICENTER":117.6954,"MEAN_ANOMALY":242.432,"EPHEMERIS_TYPE":0,"CLASSIFICATION_TYPE":"U","NORAD_CAT_ID":48767,"ELEMENT_SET_NO":999,"REV_AT_EPOCH":24254,"BSTAR":0.00046151,"MEAN_MOTION_DOT":1.88e-06,"MEAN_MOTION_DDOT":0.0},{"OBJECT_NAME":"ONEWEB-0223","OBJECT_ID":"2021-045B","EPOCH":"2026-06-02T15:59:28.136832","MEAN_MOTION":13.15550189,"ECCENTRICITY":0.0001573,"INCLINATION":87.901,"RA_OF_ASC_NODE":262.0812,"ARG_OF_PERICENTER":102.5707,"MEAN_ANOMALY":257.56,"EPHEMERIS_TYPE":0,"CLASSIFICATION_TYPE":"U","NORAD_CAT_ID":48768,"ELEMENT_SET_NO":999,"REV_AT_EPOCH":24249,"BSTAR":-0.0014681,"MEAN_MOTION_DOT":-5.4e-06,"MEAN_MOTION_DDOT":0.0},{"OBJECT_NAME":"ONEWEB-0230","OBJECT_ID":"2021-045C","EPOCH":"2026-06-03T05:54:36.045792","MEAN_MOTION":13.15547433,"ECCENTRICITY":0.0002062,"INCLINATION":87.8998,"RA_OF_ASC_NODE":261.9815,"ARG_OF_PERICENTER":97.5906,"MEAN_ANOMALY":262.5459,"EPHEMERIS_TYPE":0,"CLASSIFICATION_TYPE":"U","NORAD_CAT_ID":48769,"ELEMENT_SET_NO":999,"REV_AT_EPOCH":24283,"BSTAR":-0.00029089,"MEAN_MOTION_DOT":-9.7e-07,"MEAN_MOTION_DDOT":0.0},{"OBJECT_NAME":"ONEWEB-0237","OBJECT_ID":"2021-045D","EPOCH":"2026-06-03T05:38:37.107744","MEAN_MOTION":13.15550299,"ECCENTRICITY":0.0001658,"INCLINATION":87.8998,"RA_OF_ASC_NODE":261.985,"ARG_OF_PERICENTER":96.3787,"MEAN_ANOMALY":263.7532,"EPHEMERIS_TYPE":0,"CLASSIFICATION_TYPE":"U","NORAD_CAT_ID":48770,"ELEMENT_SET_NO":999,"REV_AT_EPOCH":24255,"BSTAR":-6.5279e-05,"MEAN_MOTION_DOT":-1.2e-07,"MEAN_MOTION_DDOT":0.0},{"OBJECT_NAME":"ONEWEB-0235","OBJECT_ID":"2021-045E","EPOCH":"2026-06-02T19:54:30.816576","MEAN_MOTION":13.15547665,"ECCENTRICITY":0.0001474,"INCLINATION":87.9007,"RA_OF_ASC_NODE":262.0507,"ARG_OF_PERICENTER":101.154,"MEAN_ANOMALY":258.9756,"EPHEMERIS_TYPE":0,"CLASSIFICATION_TYPE":"U","NORAD_CAT_ID":48771,"ELEMENT_SET_NO":999,"REV_AT_EPOCH":24249,"BSTAR":0.0005553200000000001,"MEAN_MOTION_DOT":2.22e-06,"MEAN_MOTION_DDOT":0.0},{"OBJECT_NAME":"ONEWEB-0242","OBJECT_ID":"2021-045F","EPOCH":"2026-06-02T14:16:49.588896","MEAN_MOTION":13.1554779,"ECCENTRICITY":0.0001804,"INCLINATION":87.901,"RA_OF_ASC_NODE":262.0938,"ARG_OF_PERICENTER":94.17,"MEAN_ANOMALY":265.9636,"EPHEMERIS_TYPE":0,"CLASSIFICATION_TYPE":"U","NORAD_CAT_ID":48772,"ELEMENT_SET_NO":999,"REV_AT_EPOCH":24250,"BSTAR":0.0003455,"MEAN_MOTION_DOT":1.43e-06,"MEAN_MOTION_DDOT":0.0},{"OBJECT_NAME":"ONEWEB-0241","OBJECT_ID":"2021-045G","EPOCH":"2026-06-03T06:24:16.561440","MEAN_MOTION":13.15546923,"ECCENTRICITY":0.0001494,"INCLINATION":87.9003,"RA_OF_ASC_NODE":261.9795,"ARG_OF_PERICENTER":107.4452,"MEAN_ANOMALY":252.6841,"EPHEMERIS_TYPE":0,"CLASSIFICATION_TYPE":"U","NORAD_CAT_ID":48773,"ELEMENT_SET_NO":999,"REV_AT_EPOCH":24250,"BSTAR":4.6249000000000004e-05,"MEAN_MOTION_DOT":3e-07,"MEAN_MOTION_DDOT":0.0},{"OBJECT_NAME":"ONEWEB-0243","OBJECT_ID":"2021-045H","EPOCH":"2026-06-03T05:20:22.735968","MEAN_MOTION":13.15548092,"ECCENTRICITY":0.0001633,"INCLINATION":87.9001,"RA_OF_ASC_NODE":262.0006,"ARG_OF_PERICENTER":87.6266,"MEAN_ANOMALY":272.5051,"EPHEMERIS_TYPE":0,"CLASSIFICATION_TYPE":"U","NORAD_CAT_ID":48774,"ELEMENT_SET_NO":999,"REV_AT_EPOCH":24252,"BSTAR":0.00038396000000000003,"MEAN_MOTION_DOT":1.57e-06,"MEAN_MOTION_DDOT":0.0},{"OBJECT_NAME":"ONEWEB-0222","OBJECT_ID":"2021-045J","EPOCH":"2026-06-02T19:48:48.411648","MEAN_MOTION":13.15547976,"ECCENTRICITY":0.0001698,"INCLINATION":87.9004,"RA_OF_ASC_NODE":262.0465,"ARG_OF_PERICENTER":105.8655,"MEAN_ANOMALY":254.2663,"EPHEMERIS_TYPE":0,"CLASSIFICATION_TYPE":"U","NORAD_CAT_ID":48775,"ELEMENT_SET_NO":999,"REV_AT_EPOCH":24251,"BSTAR":0.00044018000000000003,"MEAN_MOTION_DOT":1.79e-06,"MEAN_MOTION_DDOT":0.0},{"OBJECT_NAME":"ONEWEB-0244","OBJECT_ID":"2021-045K","EPOCH":"2026-06-03T05:34:04.035360","MEAN_MOTION":13.15547834,"ECCENTRICITY":0.0001805,"INCLINATION":87.9014,"RA_OF_ASC_NODE":261.9592,"ARG_OF_PERICENTER":98.9685,"MEAN_ANOMALY":261.165,"EPHEMERIS_TYPE":0,"CLASSIFICATION_TYPE":"U","NORAD_CAT_ID":48776,"ELEMENT_SET_NO":999,"REV_AT_EPOCH":24313,"BSTAR":5.6883e-05,"MEAN_MOTION_DOT":3.4e-07,"MEAN_MOTION_DDOT":0.0},{"OBJECT_NAME":"ONEWEB-0247","OBJECT_ID":"2021-045L","EPOCH":"2026-06-03T05:29:29.184000","MEAN_MOTION":13.15554329,"ECCENTRICITY":0.000147,"INCLINATION":87.9005,"RA_OF_ASC_NODE":261.9934,"ARG_OF_PERICENTER":73.4189,"MEAN_ANOMALY":286.7103,"EPHEMERIS_TYPE":0,"CLASSIFICATION_TYPE":"U","NORAD_CAT_ID":48777,"ELEMENT_SET_NO":999,"REV_AT_EPOCH":24257,"BSTAR":0.0010676,"MEAN_MOTION_DOT":4.15e-06,"MEAN_MOTION_DDOT":0.0},{"OBJECT_NAME":"ONEWEB-0245","OBJECT_ID":"2021-045M","EPOCH":"2026-06-03T05:22:40.044576","MEAN_MOTION":13.15548434,"ECCENTRICITY":0.0001825,"INCLINATION":87.9008,"RA_OF_ASC_NODE":261.9727,"ARG_OF_PERICENTER":109.4427,"MEAN_ANOMALY":250.69,"EPHEMERIS_TYPE":0,"CLASSIFICATION_TYPE":"U","NORAD_CAT_ID":48778,"ELEMENT_SET_NO":999,"REV_AT_EPOCH":24254,"BSTAR":0.00022309,"MEAN_MOTION_DOT":9.7e-07,"MEAN_MOTION_DDOT":0.0},{"OBJECT_NAME":"ONEWEB-0229","OBJECT_ID":"2021-045N","EPOCH":"2026-06-02T20:08:12.021792","MEAN_MOTION":13.15547889,"ECCENTRICITY":0.0001815,"INCLINATION":87.9003,"RA_OF_ASC_NODE":262.0478,"ARG_OF_PERICENTER":98.6345,"MEAN_ANOMALY":261.4991,"EPHEMERIS_TYPE":0,"CLASSIFICATION_TYPE":"U","NORAD_CAT_ID":48779,"ELEMENT_SET_NO":999,"REV_AT_EPOCH":24252,"BSTAR":0.00038025,"MEAN_MOTION_DOT":1.56e-06,"MEAN_MOTION_DDOT":0.0}]